STARLINK-33946          
1 64034U 25102N   25158.90574749 -.00281077  00000+0 -54948-2 0  9991
2 64034  69.9998  92.8275 0003825 274.1913  85.8834 15.48283942  4766
STARLINK-34046          
1 64035U 25102P   25159.33336806 -.01928709  00000+0 -80568-2 0  9998
2 64035  69.9880  90.2779 0003694 268.7298  43.2055 15.88612858  3855
STARLINK-34085          
1 64036U 25102Q   25158.90264769  .00105985  00000+0  17017-2 0  9998
2 64036  70.0000  92.8164 0003441 288.6763  71.4050 15.52533275  4717
STARLINK-34008          
1 64037U 25102R   25157.08335648 -.01478642  00000+0 -25621-1 0  9997
2 64037  69.9995  97.7986 0003537 271.2126   4.6334 15.53884970  4378
STARLINK-34079          
1 64038U 25102S   25158.90195877  .00083355  00000+0  13419-2 0  9991
2 64038  70.0001  92.8135 0003575 274.9101  85.1678 15.52550570  4805
STARLINK-34089          
1 64039U 25102T   25156.91668981 -.01623850  00000+0 -27271-1 0  9995
2 64039  69.9998  98.2517 0003704 271.5013 155.9152 15.54521372  4343
STARLINK-34117          
1 64040U 25102U   25156.83335648 -.01551076  00000+0 -26156-1 0  9990
2 64040  69.9997  98.4785 0003755 267.5911  55.4996 15.54780099  3455
STARLINK-34111          
1 64041U 25102V   25158.90093221  .00070465  00000+0  11368-2 0  9994
2 64041  70.0005  92.8098 0003313 276.4265  83.6545 15.52547966  4484
STARLINK-34049          
1 64042U 25102W   25157.80527238  .00070102  00000+0  11306-2 0  9993
2 64042  69.9997  95.8083 0003289 274.9184  85.1628 15.52557874  4538
STARLINK-34096          
1 64043U 25102X   25156.64596106 -.00673421  00000+0 -10565-1 0  9995
2 64043  69.9992  98.9869 0003814 266.9878  93.0874 15.55768097  4192
STARLINK-34081          
1 64044U 25102Y   25156.64561660 -.00583681  00000+0 -90379-2 0  9993
2 64044  69.9995  98.9860 0004051 263.8880  96.1847 15.55818658  4249
STARLINK-34033          
1 64045U 25102Z   25158.89921490  .00085324  00000+0  13736-2 0  9995
2 64045  70.0002  92.8028 0003636 274.7044  85.3727 15.52542236  4657
STARLINK-33952          
1 64046U 25102AA  25156.64459060 -.00674695  00000+0 -10584-1 0  9990
2 64046  69.9996  98.9822 0003851 265.1379  94.9369 15.55774502  4317
STARLINK-33961          
1 64047U 25102AB  25158.25525530  .00095014  00000+0  15245-2 0  9996
2 64047  70.0000  94.5692 0003567 270.4411  89.6367 15.52595883  4492
TIANYI A                
1 64048U 25103A   25159.48305555  .00003644  00000+0  19967-3 0  9991
2 64048  97.4141 234.5732 0005823  71.8929 288.2937 15.14805833  3370
TIANYI B                
1 64049U 25103B   25159.54284171  .00005793  00000+0  31199-3 0  9997
2 64049  97.4197 234.6626 0003838  66.5149 293.6486 15.15189400  3380
TIANYI C                
1 64050U 25103C   25159.54266528  .00005618  00000+0  30256-3 0  9994
2 64050  97.4155 234.6507 0003919  63.6952 296.4683 15.15205778  3381
TIANYI D                
1 64051U 25103D   25159.54278143  .00003465  00000+0  18829-3 0  9991
2 64051  97.4223 234.6703 0004264  60.5125 299.6532 15.15143238  3377
TIANYI E                
1 64052U 25103E   25159.54196595  .00006262  00000+0  33612-3 0  9997
2 64052  97.4162 234.6532 0004339  56.5221 303.6425 15.15273973  3372
TIANYI F                
1 64053U 25103F   25159.54093149  .00003130  00000+0  16932-3 0  9996
2 64053  97.4200 234.6664 0004292  51.3266 308.8350 15.15374864  3399
QPS-SAR-10              
1 64055U 25104A   25159.51685079  .00003036  00000+0  27290-3 0  9999
2 64055  42.0038 172.6953 0007092  51.1320 309.0136 14.97269446  3335
TIANQI A                
1 64058U 25105A   25159.57683512  .00000170  00000+0  16016-3 0  9999
2 64058  44.9833 245.0546 0011507  59.0441 301.1527 14.13492716  2862
TIANQI B                
1 64059U 25105B   25159.57289458  .00000224  00000+0  18740-3 0  9997
2 64059  44.9796 245.0252 0011054  56.7699 303.4198 14.13878935  2861
TIANQI C                
1 64060U 25105C   25159.57449469  .00000203  00000+0  17714-3 0  9996
2 64060  44.9841 245.0412 0011150  69.9340 290.2698 14.13601303  2869
TIANQI D                
1 64061U 25105D   25159.57378421  .00000210  00000+0  18085-3 0  9996
2 64061  44.9848 245.0379 0011119  64.4609 295.7378 14.13677190  2875
CHINASAT 3B             
1 64062U 25106A   25159.47107856 -.00000026  00000+0  00000+0 0  9999
2 64062   0.0208 358.8701 0000829 279.5086 315.6187  1.00272021   318
STARLINK-11741 [DTC]    
1 64064U 25107A   25159.44353663  .00380702  00000+0  20894-2 0  9995
2 64064  42.9983 313.3393 0002533 305.0379  55.0253 15.77907808  4143
STARLINK-11709 [DTC]    
1 64065U 25107B   25159.50195298  .00156608  00000+0  88374-3 0  9995
2 64065  42.9982 312.9149 0002103 228.6908 131.3782 15.77921267  4092
STARLINK-11737 [DTC]    
1 64066U 25107C   25158.48427340  .00196741  00000+0  11059-2 0  9995
2 64066  42.9987 319.0455 0002022 277.7985  82.2656 15.77888123  3991
STARLINK-11726 [DTC]    
1 64067U 25107D   25155.75002315 -.01078976  00000+0 -59894-2 0  9995
2 64067  43.0057 335.6506 0001714 259.5435  50.3117 15.80923134  3521
STARLINK-11700 [DTC]    
1 64068U 25107E   25155.81978963 -.00221354  00000+0 -10055-2 0  9999
2 64068  43.0050 335.1895 0002151 285.3955  74.6679 15.83440783  3575
STARLINK-11649 [DTC]    
1 64069U 25107F   25156.89076746  .00374870  00000+0  16000-2 0  9993
2 64069  43.0047 328.5931 0001684   1.6627 358.4251 15.83393387  3749
STARLINK-11713 [DTC]    
1 64070U 25107G   25157.83554975  .00079951  00000+0  35374-3 0  9993
2 64070  43.0047 322.7725 0003040 287.1996  72.8543 15.83464045  3893
STARLINK-11719 [DTC]    
1 64071U 25107H   25158.84340701 -.00370518  00000+0 -17342-2 0  9995
2 64071  43.0044 316.5648 0001937  17.7453 342.3486 15.83189211  4053
STARLINK-11733 [DTC]    
1 64072U 25107J   25159.47282842  .00385079  00000+0  15824-2 0  9996
2 64072  43.0041 312.6790 0004536 249.1529 110.8858 15.84161239  4152
STARLINK-11729 [DTC]    
1 64073U 25107K   25159.47220777  .00388578  00000+0  15503-2 0  9997
2 64073  43.0044 312.6742 0001805 275.2356  84.8310 15.84776285  4153
STARLINK-11730 [DTC]    
1 64074U 25107L   25159.47156332  .00753498  00000+0  28354-2 0  9998
2 64074  43.0043 312.6689 0003381 257.7990 102.2504 15.85100235  4150
STARLINK-11723 [DTC]    
1 64075U 25107M   25158.39938135  .00340340  00000+0  13644-2 0  9992
2 64075  43.0045 319.2544 0002314 296.0979  63.9656 15.84796248  3989
STARLINK-11715 [DTC]    
1 64076U 25107N   25159.47044715  .00414498  00000+0  16384-2 0  9995
2 64076  43.0042 312.6597 0003643 271.0926  88.9529 15.84903681  4150
STARLINK-34201          
1 64077U 25107P   25157.92777870 -.00548366  00000+0 -50043-2 0  9993
2 64077  42.9997 322.6161 0001555  86.7697 273.3348 15.68608318  2813
STARLINK-34190          
1 64078U 25107Q   25157.79938141 -.00245406  00000+0 -21013-2 0  9993
2 64078  43.0003 323.3763 0005357 259.9141 100.1122 15.69221743  3881
STARLINK-34168          
1 64079U 25107R   25157.92743513  .00065156  00000+0  55674-3 0  9997
2 64079  43.0003 322.6149 0003274 295.0395  65.0131 15.68593754  3905
STARLINK-34098          
1 64080U 25107S   25157.92709303 -.00489343  00000+0 -44253-2 0  9998
2 64080  42.9996 322.6108 0001326 225.1455 134.9304 15.68656161  3908
STARLINK-34180          
1 64081U 25107T   25157.79904110 -.00603445  00000+0 -54415-2 0  9999
2 64081  42.9997 323.3714 0003147 272.5742  87.4765 15.69044079  3889
STARLINK-34171          
1 64082U 25107U   25157.79871805 -.00620622  00000+0 -56196-2 0  9998
2 64082  43.0002 323.3695 0001542 282.1109  77.9585 15.69007652  3888
STARLINK-34126          
1 64083U 25107V   25157.73403566  .00220290  00000+0  17668-2 0  9994
2 64083  43.0004 323.7413 0004111 160.8309 199.2713 15.69556350  2785
STARLINK-34157          
1 64084U 25107W   25158.81721092 -.00637258  00000+0 -66551-2 0  9995
2 64084  42.9991 317.2438 0001153 247.4709 112.6035 15.65578795  4010
STARLINK-34140          
1 64085U 25107X   25156.59015709 -.00613346  00000+0 -46814-2 0  9992
2 64085  43.0008 330.6463 0001499 262.8084  97.2614 15.73021107  3670
STARLINK-34132          
1 64086U 25107Y   25156.84393582  .00273011  00000+0  19270-2 0  9994
2 64086  43.0009 329.1094 0005826  16.5076 343.5981 15.72431356  3706
2025-108A               
1 64087U 25108A   25159.52876728  .00004362  00000+0  24688-3 0  9993
2 64087  97.5136 235.0928 0015355 222.9330 137.0704 15.13476539  2780
2025-108B               
1 64088U 25108B   25159.53371874  .00006217  00000+0  35382-3 0  9991
2 64088  97.5101 235.0781 0014577 216.2126 143.8119 15.13115250  2745
2025-108C               
1 64089U 25108C   25159.53537089  .00004507  00000+0  25876-3 0  9991
2 64089  97.5068 235.0652 0015776 216.9128 143.1018 15.12934278  2745
2025-108D               
1 64090U 25108D   25159.53224072  .00003604  00000+0  20641-3 0  9990
2 64090  97.5068 235.0730 0014554 218.6423 141.3767 15.13172922  2746
2025-108E               
1 64091U 25108E   25159.53312278  .00007626  00000+0  43210-3 0  9992
2 64091  97.5063 235.0704 0014636 216.4979 143.5256 15.13197156  2749
2025-108F               
1 64092U 25108F   25159.53135593  .00010462  00000+0  58842-3 0  9995
2 64092  97.5059 235.0716 0014611 218.9813 141.0366 15.13364843  2749
COSMOS 2588             
1 64095U 25109A   25159.55330225  .00007552  00000+0  25521-3 0  9994
2 64095  72.9724 334.9597 0011773 220.3776 139.6547 15.30801748  2489
STARLINK-34178          
1 64096U 25110A   25158.27298382 -.00758268  00000+0 -67610-2 0  9995
2 64096  53.1589 237.5114 0003483  28.1974 331.9232 15.69990448  3551
STARLINK-34174          
1 64097U 25110B   25158.08164378 -.00726318  00000+0 -62331-2 0  9998
2 64097  53.1589 238.4504 0001156 179.5496 180.5524 15.70829030  3529
STARLINK-34146          
1 64098U 25110C   25158.27229586 -.00687572  00000+0 -60560-2 0  9993
2 64098  53.1585 237.5063 0003998  26.7776 333.3448 15.70073264  3552
